STARLINK-36839          
1 68125U 26044AA  26095.58336806 -.01303302  00000+0 -26122-1 0  9996
2 68125  97.2858  56.9366 0002129  78.7370  13.5753 15.49596500  5670
ECHOSTAR 25             
1 68126U 26045A   26095.49628063  .00000060  00000+0  00000+0 0  9994
2 68126   0.0330 281.9299 0001800 154.0401 167.6293  1.00271275   262
ICOR SV                 
1 68127U 26046A   26095.58423866  .00566370  12338-4  60397-3 0  9992
2 68127 123.0715 329.2342 0083892 239.5685 119.7085 16.02418156  3882
FIREFLY ALPHA R/B       
1 68128U 26046B   26095.54007278  .00040703  00000+0  53413-3 0  9990
2 68128 123.0914 323.4742 0017486  32.2847 327.9281 15.58008614  3827
GUOWANG GROUP 20 OBJECT*
1 68129U 26047A   26095.61883168 -.00000096  00000+0  44323-4 0  9993
2 68129  50.0045 321.8806 0001124 130.3025 229.7968 13.80809467  3330
GUOWANG GROUP 20 OBJECT*
1 68130U 26047B   26095.61501207 -.00000064  00000+0  74072-4 0  9995
2 68130  50.0035 321.8683 0000603 277.2278  82.8548 13.81038294  3320
GUOWANG GROUP 20 OBJECT*
1 68131U 26047C   26095.61181955 -.00000095  00000+0  44686-4 0  9992
2 68131  49.9927 321.8947 0003062 305.5324  54.5285 13.81638668  3336
GUOWANG GROUP 20 OBJECT*
1 68132U 26047D   26095.60856932 -.00000083  00000+0  55903-4 0  9997
2 68132  50.0062 321.8401 0001374 272.4140  87.6597 13.81488231  3328
GUOWANG GROUP 20 OBJECT*
1 68133U 26047E   26093.00475373 -.00000089  00000+0  48671-4 0  9996
2 68133  50.0078 332.0369 0000826  23.1230 336.9704 13.85521979  2976
GUOWANG GROUP 20 OBJECT*
1 68134U 26047F   26095.67129524 -.00000026  00000+0  10894-3 0  9992
2 68134  50.0074 321.5041 0000903 171.5425 188.5486 13.81871292  3334
GUOWANG GROUP 20 OBJECT*
1 68135U 26047G   26095.60196657  .00000002  00000+0  13274-3 0  9995
2 68135  50.0073 321.8394 0005162 264.3686  95.6621 13.82947981  3339
GUOWANG GROUP 20 OBJECT*
1 68136U 26047H   26095.66816385 -.00000091  00000+0  48154-4 0  9994
2 68136  50.0073 321.4860 0000442 178.4137 181.6759 13.82123229  3335
