CCSDS_OMM_VERS = 2.0
CREATION_DATE  = 
ORIGINATOR     = 

OBJECT_NAME    = STARLINK-36839
OBJECT_ID      = 2026-044AA
CENTER_NAME    = EARTH
REF_FRAME      = TEME
TIME_SYSTEM    = UTC
MEAN_ELEMENT_THEORY = SGP/SGP4

EPOCH          = 2026-04-05T14:00:03.000384
MEAN_MOTION    = 15.49596500
ECCENTRICITY   = .00021292
INCLINATION    = 97.2858
RA_OF_ASC_NODE = 56.9366
ARG_OF_PERICENTER = 78.7370
MEAN_ANOMALY   = 13.5753

EPHEMERIS_TYPE = 0
CLASSIFICATION_TYPE = U
NORAD_CAT_ID   = 68125
ELEMENT_SET_NO = 999
REV_AT_EPOCH   = 567
BSTAR          = -.26121896E-1
MEAN_MOTION_DOT = -.1303302E-1
MEAN_MOTION_DDOT = 0

CCSDS_OMM_VERS = 2.0
CREATION_DATE  = 
ORIGINATOR     = 

OBJECT_NAME    = ECHOSTAR 25
OBJECT_ID      = 2026-045A
CENTER_NAME    = EARTH
REF_FRAME      = TEME
TIME_SYSTEM    = UTC
MEAN_ELEMENT_THEORY = SGP/SGP4

EPOCH          = 2026-04-05T11:54:38.646432
MEAN_MOTION    = 1.00271275
ECCENTRICITY   = .00018009
INCLINATION    = 0.0330
RA_OF_ASC_NODE = 281.9299
ARG_OF_PERICENTER = 154.0401
MEAN_ANOMALY   = 167.6293

EPHEMERIS_TYPE = 0
CLASSIFICATION_TYPE = U
NORAD_CAT_ID   = 68126
ELEMENT_SET_NO = 999
REV_AT_EPOCH   = 26
BSTAR          = 0
MEAN_MOTION_DOT = .6E-6
MEAN_MOTION_DDOT = 0

CCSDS_OMM_VERS = 2.0
CREATION_DATE  = 
ORIGINATOR     = 

OBJECT_NAME    = ICOR SV
OBJECT_ID      = 2026-046A
CENTER_NAME    = EARTH
REF_FRAME      = TEME
TIME_SYSTEM    = UTC
MEAN_ELEMENT_THEORY = SGP/SGP4

EPOCH          = 2026-04-05T14:01:18.220224
MEAN_MOTION    = 16.02418156
ECCENTRICITY   = .00838926
INCLINATION    = 123.0715
RA_OF_ASC_NODE = 329.2342
ARG_OF_PERICENTER = 239.5685
MEAN_ANOMALY   = 119.7085

EPHEMERIS_TYPE = 0
CLASSIFICATION_TYPE = U
NORAD_CAT_ID   = 68127
ELEMENT_SET_NO = 999
REV_AT_EPOCH   = 388
BSTAR          = .60397448E-3
MEAN_MOTION_DOT = .56637E-2
MEAN_MOTION_DDOT = .12337993E-4

CCSDS_OMM_VERS = 2.0
CREATION_DATE  = 
ORIGINATOR     = 

OBJECT_NAME    = FIREFLY ALPHA R/B
OBJECT_ID      = 2026-046B
CENTER_NAME    = EARTH
REF_FRAME      = TEME
TIME_SYSTEM    = UTC
MEAN_ELEMENT_THEORY = SGP/SGP4

EPOCH          = 2026-04-05T12:57:42.288192
MEAN_MOTION    = 15.58008614
ECCENTRICITY   = .0017486
INCLINATION    = 123.0914
RA_OF_ASC_NODE = 323.4742
ARG_OF_PERICENTER = 32.2847
MEAN_ANOMALY   = 327.9281

EPHEMERIS_TYPE = 0
CLASSIFICATION_TYPE = U
NORAD_CAT_ID   = 68128
ELEMENT_SET_NO = 999
REV_AT_EPOCH   = 382
BSTAR          = .5341256E-3
MEAN_MOTION_DOT = .40703E-3
MEAN_MOTION_DDOT = 0

CCSDS_OMM_VERS = 2.0
CREATION_DATE  = 
ORIGINATOR     = 

OBJECT_NAME    = GUOWANG GROUP 20 OBJECT A
OBJECT_ID      = 2026-047A
CENTER_NAME    = EARTH
REF_FRAME      = TEME
TIME_SYSTEM    = UTC
MEAN_ELEMENT_THEORY = SGP/SGP4

EPOCH          = 2026-04-05T14:51:07.057152
MEAN_MOTION    = 13.80809467
ECCENTRICITY   = .0001124
INCLINATION    = 50.0045
RA_OF_ASC_NODE = 321.8806
ARG_OF_PERICENTER = 130.3025
MEAN_ANOMALY   = 229.7968

EPHEMERIS_TYPE = 0
CLASSIFICATION_TYPE = U
NORAD_CAT_ID   = 68129
ELEMENT_SET_NO = 999
REV_AT_EPOCH   = 333
BSTAR          = .44322578E-4
MEAN_MOTION_DOT = -.96E-6
MEAN_MOTION_DDOT = 0

CCSDS_OMM_VERS = 2.0
CREATION_DATE  = 
ORIGINATOR     = 

OBJECT_NAME    = GUOWANG GROUP 20 OBJECT B
OBJECT_ID      = 2026-047B
CENTER_NAME    = EARTH
REF_FRAME      = TEME
TIME_SYSTEM    = UTC
MEAN_ELEMENT_THEORY = SGP/SGP4

EPOCH          = 2026-04-05T14:45:37.042848
MEAN_MOTION    = 13.81038294
ECCENTRICITY   = .0000603
INCLINATION    = 50.0035
RA_OF_ASC_NODE = 321.8683
ARG_OF_PERICENTER = 277.2278
MEAN_ANOMALY   = 82.8548

EPHEMERIS_TYPE = 0
CLASSIFICATION_TYPE = U
NORAD_CAT_ID   = 68130
ELEMENT_SET_NO = 999
REV_AT_EPOCH   = 332
BSTAR          = .74072E-4
MEAN_MOTION_DOT = -.64E-6
MEAN_MOTION_DDOT = 0

CCSDS_OMM_VERS = 2.0
CREATION_DATE  = 
ORIGINATOR     = 

OBJECT_NAME    = GUOWANG GROUP 20 OBJECT C
OBJECT_ID      = 2026-047C
CENTER_NAME    = EARTH
REF_FRAME      = TEME
TIME_SYSTEM    = UTC
MEAN_ELEMENT_THEORY = SGP/SGP4

EPOCH          = 2026-04-05T14:41:01.209120
MEAN_MOTION    = 13.81638668
ECCENTRICITY   = .0003062
INCLINATION    = 49.9927
RA_OF_ASC_NODE = 321.8947
ARG_OF_PERICENTER = 305.5324
MEAN_ANOMALY   = 54.5285

EPHEMERIS_TYPE = 0
CLASSIFICATION_TYPE = U
NORAD_CAT_ID   = 68131
ELEMENT_SET_NO = 999
REV_AT_EPOCH   = 333
BSTAR          = .44686E-4
MEAN_MOTION_DOT = -.95E-6
MEAN_MOTION_DDOT = 0

CCSDS_OMM_VERS = 2.0
CREATION_DATE  = 
ORIGINATOR     = 

OBJECT_NAME    = GUOWANG GROUP 20 OBJECT D
OBJECT_ID      = 2026-047D
CENTER_NAME    = EARTH
REF_FRAME      = TEME
TIME_SYSTEM    = UTC
MEAN_ELEMENT_THEORY = SGP/SGP4

EPOCH          = 2026-04-05T14:36:20.389248
MEAN_MOTION    = 13.81488231
ECCENTRICITY   = .0001374
INCLINATION    = 50.0062
RA_OF_ASC_NODE = 321.8401
ARG_OF_PERICENTER = 272.4140
MEAN_ANOMALY   = 87.6597

EPHEMERIS_TYPE = 0
CLASSIFICATION_TYPE = U
NORAD_CAT_ID   = 68132
ELEMENT_SET_NO = 999
REV_AT_EPOCH   = 332
BSTAR          = .55903E-4
MEAN_MOTION_DOT = -.83E-6
MEAN_MOTION_DDOT = 0

CCSDS_OMM_VERS = 2.0
CREATION_DATE  = 
ORIGINATOR     = 

OBJECT_NAME    = GUOWANG GROUP 20 OBJECT E
OBJECT_ID      = 2026-047E
CENTER_NAME    = EARTH
REF_FRAME      = TEME
TIME_SYSTEM    = UTC
MEAN_ELEMENT_THEORY = SGP/SGP4

EPOCH          = 2026-04-03T00:06:50.722272
MEAN_MOTION    = 13.85521979
ECCENTRICITY   = .00008265
INCLINATION    = 50.0078
RA_OF_ASC_NODE = 332.0369
ARG_OF_PERICENTER = 23.1230
MEAN_ANOMALY   = 336.9704

EPHEMERIS_TYPE = 0
CLASSIFICATION_TYPE = U
NORAD_CAT_ID   = 68133
ELEMENT_SET_NO = 999
REV_AT_EPOCH   = 297
BSTAR          = .48670636E-4
MEAN_MOTION_DOT = -.89E-6
MEAN_MOTION_DDOT = 0

CCSDS_OMM_VERS = 2.0
CREATION_DATE  = 
ORIGINATOR     = 

OBJECT_NAME    = GUOWANG GROUP 20 OBJECT F
OBJECT_ID      = 2026-047F
CENTER_NAME    = EARTH
REF_FRAME      = TEME
TIME_SYSTEM    = UTC
MEAN_ELEMENT_THEORY = SGP/SGP4

EPOCH          = 2026-04-05T16:06:39.908736
MEAN_MOTION    = 13.81871292
ECCENTRICITY   = .0000903
INCLINATION    = 50.0074
RA_OF_ASC_NODE = 321.5041
ARG_OF_PERICENTER = 171.5425
MEAN_ANOMALY   = 188.5486

EPHEMERIS_TYPE = 0
CLASSIFICATION_TYPE = U
NORAD_CAT_ID   = 68134
ELEMENT_SET_NO = 999
REV_AT_EPOCH   = 333
BSTAR          = .10894E-3
MEAN_MOTION_DOT = -.26E-6
MEAN_MOTION_DDOT = 0

CCSDS_OMM_VERS = 2.0
CREATION_DATE  = 
ORIGINATOR     = 

OBJECT_NAME    = GUOWANG GROUP 20 OBJECT G
OBJECT_ID      = 2026-047G
CENTER_NAME    = EARTH
REF_FRAME      = TEME
TIME_SYSTEM    = UTC
MEAN_ELEMENT_THEORY = SGP/SGP4

EPOCH          = 2026-04-05T14:26:49.911648
MEAN_MOTION    = 13.82947981
ECCENTRICITY   = .0005162
INCLINATION    = 50.0073
RA_OF_ASC_NODE = 321.8394
ARG_OF_PERICENTER = 264.3686
MEAN_ANOMALY   = 95.6621

EPHEMERIS_TYPE = 0
CLASSIFICATION_TYPE = U
NORAD_CAT_ID   = 68135
ELEMENT_SET_NO = 999
REV_AT_EPOCH   = 333
BSTAR          = .13274E-3
MEAN_MOTION_DOT = .2E-7
MEAN_MOTION_DDOT = 0

CCSDS_OMM_VERS = 2.0
CREATION_DATE  = 
ORIGINATOR     = 

OBJECT_NAME    = GUOWANG GROUP 20 OBJECT H
OBJECT_ID      = 2026-047H
CENTER_NAME    = EARTH
REF_FRAME      = TEME
TIME_SYSTEM    = UTC
MEAN_ELEMENT_THEORY = SGP/SGP4

EPOCH          = 2026-04-05T16:02:09.356640
MEAN_MOTION    = 13.82123229
ECCENTRICITY   = .0000442
INCLINATION    = 50.0073
RA_OF_ASC_NODE = 321.4860
ARG_OF_PERICENTER = 178.4137
MEAN_ANOMALY   = 181.6759

EPHEMERIS_TYPE = 0
CLASSIFICATION_TYPE = U
NORAD_CAT_ID   = 68136
ELEMENT_SET_NO = 999
REV_AT_EPOCH   = 333
BSTAR          = .48154E-4
MEAN_MOTION_DOT = -.91E-6
MEAN_MOTION_DDOT = 0

